#dP2023 11 13  0  0  0.00000000      96 __u+U IGS20 FIT  IAC
## 2288  86400.00000000   900.00000000 60261 0.0000000000000
+  116   C06C07C08C09C10C11C12C13C14C16C19C20C21C22C23C24C25
+        C26C27C28C29C30C32C33C34C35C36C37C38C39C40C41C42C43
+        C44C45C46E02E03E04E07E08E09E10E11E12E13E15E19E21E24
+        E25E26E27E30E31E33E34E36G01G02G03G04G05G06G07G08G09
+        G10G11G12G13G14G15G16G17G18G19G20G21G22G23G24G25G26
+        G27G28G29G30G31G32J02J03J04R01R02R03R04R05R07R08R09
+        R11R12R13R14R15R16R17R18R19R20R21R22R24R25  0  0  0
++         9  6  9  9  6  6  8  8  7  9  5  7  5  6  7  5  6
++         5  6  7  7  6  6  6  6  6  6  6  9 10  7  7  6  5
++         7  6  6  5  5  5  6  5  7  7  8  6  5  6  6  5  5
++         7  7  5  5  6  6  6  9  6  5  6  5  6  6  6  4  6
++         5  5  6  6  5  6  6  6  6  6  8  5  7  5  6  5  7
++         5  6  5  5  6  6  6  9  6  7  5  6  7  6  7  8  6
++         6  7  7  6  8  7  6  6  8  4  6  6  7  8  0  0  0
%c M  cc GPS ccc cccc cccc cccc cccc ccccc ccccc ccccc ccccc
%c cc cc ccc ccc cccc cccc cccc cccc ccccc ccccc ccccc ccccc
%f  0.0000000  0.000000000  0.00000000000  0.000000000000000
%f  0.0000000  0.000000000  0.00000000000  0.000000000000000
%i    0    0    0    0      0      0      0      0         0
%i    0    0    0    0      0      0      0      0         0
/* INFORMATION & ANALYSIS CENTER (IAC)      ULTRA-RAPID DATA
/* S/V CLOCKS ARE ALIGNED TO GNSS TIME                      
/* G:C1WC2W R:C1PC2P E:C1XC5X C:C2IC6I J:C1CC2S             
/* PCV:IGS20_2280 OL/AL:FES2004  NONE     YN ORB:CoN CLK:CoN
*  2023 11 13 21 30  0.00000000
PC06 -17874.740221  28191.862454 -25887.493115     21.807065
PC07  -7760.958691  39984.289619 -10442.328854   -313.695515
PC08   -566.548289  23140.022522  35283.360807    242.150916
PC09  -9265.584014  27077.387513 -30735.599298    -85.200635
PC10   -823.282468  41755.950650  -2737.480792    -16.026509
PC11 -19596.321202  -1107.999712 -19751.754856    254.396161
PC12  -3969.879519 -16047.704978 -22437.201586    860.297989
PC13   5307.245909  26603.109644  32525.493437    382.132009
PC14 -16008.548917 -10989.356705  20068.128416    777.962691
PC16 -21852.672252  27495.322096 -23324.154464   -173.999329
PC19  15836.562401     52.012984 -22959.432314   -970.152354
PC20  14051.900237  18624.825455 -15291.165013    119.406309
PC21  -3531.336527 -27587.768451  -2374.129494   -969.422024
PC22   8653.547614 -19627.056639 -17869.469244   -226.521077
PC23 -16393.644841   9801.031907 -20341.719210   -822.271071
PC24 -21453.687202 -14943.372601   9697.879554    593.251452
PC25 -26554.361063  -2400.671399  -8209.322899    254.960929
PC26  -4988.141123 -17561.184050  21078.257730   -205.778238
PC27  -4177.679654  20437.145417  18525.297274    227.653188
PC28 -18441.950153  20286.893960   5202.476466    171.766917
PC29  22985.983597  -8000.497795  13653.379365    200.942674
PC30  12980.214339   9723.809551  22704.404011     -8.292048
PC32   3654.463477  27549.456502   2515.691084   -534.697801
PC33 -15891.385926   -101.397655  22935.993832   -945.282443
PC34 -14211.290063  -8480.945845 -22477.900038    302.708440
PC35  17578.037837 -20997.919630  -5287.965777    503.548859
PC36  26662.161349   3658.124828   7429.202036   -135.824143
PC37   3868.491858  17592.926279 -21313.910904   -885.590979
PC38  -9705.793922  20728.874606  35458.385252    117.505761
PC39 -24235.576084  28453.584559 -19730.186868     -5.663403
PC40 -13007.298191  37523.735317 -13764.645657    -43.882637
PC41  -9070.637106  19001.049924  18359.690215   -871.371173
PC42 -13611.669277 -19880.710883  14131.780933   -500.006223
PC43 -22892.200631   7133.236721 -14296.573741     48.114405
PC44   3458.477667 -20724.649569 -18360.555340    291.851139
PC45  15890.586567 -10003.976733  20647.643707    -45.804180
PC46  22222.392880  14488.754883  -8740.206540    -99.532366
PE02  21450.537873  18665.421666   8262.995546     78.183963
PE03  13924.759855  10392.414857 -23973.894012    -73.272627
PE04 -19289.376645  11167.620208  19478.007860   -256.799516
PE07  13541.274588 -26033.929788  -3899.825505    -87.635177
PE08  19179.452157 -10648.869955 -19883.227536   -176.540199
PE09 -13561.229399  25993.189818   4037.982612   -226.619143
PE10 -24994.467069  10929.249811  11473.263539   -578.633678
PE11 -16391.402470  14993.789104  19560.283946   3201.152863
PE12 -28965.785253   5582.166569   2511.839549   -775.848345
PE13  17084.053908 -14756.855390 -19138.284188    -19.603823
PE15  29053.526376  -5300.864331  -2003.487674    -68.981420
PE19 -12378.300516 -12887.471579  23595.242743  -1221.486500
PE21 -11348.215350 -25579.681373   9638.143875   -564.023340
PE24  -6407.396504  17656.966040 -22896.414624   -429.975843
PE25  11070.782309  25584.560580  -9962.155594     -3.476252
PE26  -5486.452060 -15450.146741 -24634.450350    280.057728
PE27   5895.689275 -17988.856160  22755.402267   -199.129763
PE30  19647.458523    505.279539  22131.276865   -659.673735
PE31 -19447.254739    -97.059000 -22304.970733     -9.984357
PE33 -23412.300699  -7460.857373 -16486.405975      2.283333
PE34  23864.312819   7068.674784  16034.221790    -77.783019
PE36   4693.079685  15441.170391  24820.424720   -143.612299
PG01  -5887.759666 -13973.326451 -22185.789132    163.197259
PG02    791.201435 -15164.802726 -21267.988103   -529.358413
PG03 -10918.850523 -22979.868166  -7958.183350    -16.211031
PG04  -1961.475900 -21524.330998  15355.835558    212.046645
PG05    118.400919  19300.566825  18027.214601   -150.265708
PG06 -25416.326770   6280.363047   4850.494541    506.722463
PG07 -22069.186766  -7092.319021  13860.367805     14.264029
PG08   3847.561049 -25011.148840  -7416.001114   -151.959096
PG09 -10592.091194 -12869.083129  20579.249173     -3.844033
PG10  18806.934389   4507.247105 -18163.902428    -61.275557
PG11 -18203.043228  12012.429862  15143.086431   -458.751695
PG12   7958.119786  23698.612533  -9360.444626   -446.660684
PG13 -13328.067936  22837.194087    -97.261902    594.943595
PG14 -19830.266515  -7845.840255 -15916.903957    242.386246
PG15    -21.325514  25281.587940  -8248.683015     96.831090
PG16   6953.710736 -15188.047760  20221.683306   -422.596414
PG17 -16613.041029   2700.182424 -20142.538766    723.269506
PG18  23038.358719   5668.213724  12137.520697   -478.209690
PG19 -18271.722279  10694.361598 -16011.890808    398.497906
PG20 -10484.591490  11337.945617  21656.845734    401.792399
PG21   3906.392243 -15525.310265 -20502.949181    144.348660
PG22 -17031.725639  -1115.733272 -19826.125943     84.480907
PG23  20067.924823  15156.447430  -8819.837194     98.427728
PG24   1281.310301  16029.013902 -21508.540143   -370.501541
PG25  17393.263721  20186.225767   1507.033007    477.254501
PG26  14207.787759  -7513.836892  21048.597013    216.853328
PG27  12803.762511 -22418.655957   4941.596555    -69.504080
PG28  25731.515691  -6083.995183   2507.353308    -45.529358
PG29   8836.956071  13859.288206  20796.858422   -610.224197
PG30 -26372.775453    164.915541   4309.118378   -468.565216
PG31  22346.209890 -10013.028180  10587.581068   -225.704008
PG32  17049.534319  -7128.049969 -18814.819563   -585.340672
PJ02 -20430.059320  22191.500359 -24764.483047     -0.161470
PJ03 -30171.917248  28126.257688  14040.075005     -8.140739
PJ04 -27012.761229  27616.484247  22765.155760     72.350800
PR01  -8341.264050  15446.039824  18500.711492     69.769087
PR02  -1623.732304  25300.166838   3193.044737    -22.346995
PR03   6532.796366  20517.701234 -13689.113215     88.956876
PR04  10540.117075   4636.801437 -22740.318545    210.949522
PR05   9130.366044 -13700.513880 -19465.682372    122.164464
PR07  -6886.952451 -19814.851355  14503.924705     69.050343
PR08 -10736.909884  -4262.391727  22791.020634    -73.265412
PR09  -2903.734061 -13570.880622  21437.174371    153.056383
PR11 -22926.297413  -9361.458609  -6140.791235   -212.956031
PR12 -14337.461795   3359.423707 -20800.609120     33.389115
PR13    548.844522  12484.737624 -22253.252748    -41.273533
PR14  17811.518431  15345.133009  -9866.457415     25.538091
PR15  22768.790043   8700.431692   7532.591412     84.794932
PR16  14477.283697  -3151.163918  20762.266814     20.584110
PR17   7644.493799   7759.897552  23082.820518     34.605122
PR18  19948.753996  -3120.167723  15581.181708    111.795806
PR19  22892.179364 -11154.547749   1578.240804   -254.553361
PR20  11118.495399 -14633.347851 -17657.221805   -103.485398
PR21  -8134.284634  -7360.969475 -23018.169942    -53.167526
PR22 -20680.113648   3001.914665 -14602.977864     93.385095
PR24  -9815.454842  15292.790891  17914.354993    -32.030154
PR25  -7398.835062  -8369.200333 -22920.274112     -5.810311
EOF
